#aV2015  4 17  0  0  0.00000000     288 DD+AD WGS84 FIT  NGA
## 1840 432000.00000000   300.00000000 57129 0.0000000000000
+   30     1  2  3  4  5  6  7  9 10 11 12 13 14 15 16 17 18
+         19 20 21 22 23 24 25 27 28 29 30 31 32  0  0  0  0
+          0  0  0  0  0  0  0  0  0  0  0  0  0  0  0  0  0
+          0  0  0  0  0  0  0  0  0  0  0  0  0  0  0  0  0
+          0  0  0  0  0  0  0  0  0  0  0  0  0  0  0  0  0
++         2  2  2  2  2  2  2  2  2  2  2  2  2  2  2  2  2
++         2  2  2  2  2  2  2  2  2  2  2  2  2  0  0  0  0
++         0  0  0  0  0  0  0  0  0  0  0  0  0  0  0  0  0
++         0  0  0  0  0  0  0  0  0  0  0  0  0  0  0  0  0
++         0  0  0  0  0  0  0  0  0  0  0  0  0  0  0  0  0
%c cc cc ccc ccc cccc cccc cccc cccc ccccc ccccc ccccc ccccc
%c cc cc ccc ccc cccc cccc cccc cccc ccccc ccccc ccccc ccccc
%f  0.0000000  0.000000000  0.00000000000  0.000000000000000
%f  0.0000000  0.000000000  0.00000000000  0.000000000000000
%i    0    0    0    0      0      0      0      0         0
%i    0    0    0    0      0      0      0      0         0
/*      NGA, ST. LOUIS,MO.                                  
/*   EPHEMERIS COMPUTED FROM  1 DAYS OF DATA                
/*   EPOCHA SMOOTHER                                       
/* CCCCCCCCCCCCCCCCCCCCCCCCCCCCCCCCCCCCCCCCCCCCCCCCCCCCCCCCC
*  2015  4 17 23 20  0.00000000
P  1  13612.325603 -22487.557026   2980.738392     -6.657624                    
V  1    883.786286   4767.227101  31594.365255      0.004578                    
P  2 -17445.841370   5074.438799 -18854.366024    560.407284                    
V  2   8616.789521 -23474.275095 -14477.501598      0.023461                    
P  3  14772.789181 -13322.346432 -17608.743910    299.770196                    
V  3  22428.451550    195.237534  18615.187937      0.133010                    
P  4  17019.477022 -16566.451088  11292.738322    -11.669005                    
V  4  -3489.341729  14910.458439  26652.885496     -0.010722                    
P  5 -26334.729562   3481.810846   2207.307168   -252.548858                    
V  5  -3067.714454  -2875.545640 -31165.514930      0.048086                    
P  6 -11270.330137 -10946.542284 -21415.542794    138.420113                    
V  6  12443.405349 -24181.668289   5801.242308      0.098153                    
P  7   4593.355907 -23896.161448  10292.401395    456.041906                    
V  7   8254.580128 -10384.918248 -28420.129327      0.027348                    
P  9  -4217.999010 -22724.613431 -13079.472460   -139.194639                    
V  9  11218.211852  12467.037822 -25311.263036     -0.079520                    
P 10 -19178.259311 -10429.148351 -15796.679290   -171.323477                    
V 10  19112.053175  -3044.208961 -21305.727177     -0.014259                    
P 11  11447.592942 -20895.561180  11075.968780   -572.126019                    
V 11   2607.482952  15477.001112  25444.466689     -0.026050                    
P 12 -17744.025818  11062.489879 -16333.702482    285.658441                    
V 12 -20616.957554   -998.194615  22062.936183      0.031126                    
P 13 -16835.504930  -2712.283915  20181.050686   -106.593996                    
V 13 -11047.889301 -23505.819099 -12404.135956     -0.033751                    
P 14  15381.917975  21272.279461  -4306.415681     70.112713                    
V 14    656.413007   6214.346310  31169.812364     -0.028478                    
P 15 -11974.259074  10273.047258  21265.349058   -244.155349                    
V 15 -16478.271161 -21810.843088   1568.062238     -0.021690                    
P 16  26649.918054  -1347.397907   2038.354886   -137.692731                    
V 16   2641.357336   1550.959600 -32010.935472      0.036090                    
P 17 -15268.900635 -21667.141366  -2688.214969   -166.856627                    
V 17     23.927620  -4397.549872  31622.279274     -0.018780                    
P 18   6532.699361  15423.717070  21148.772225    394.716992                    
V 18 -25694.976406   2715.756185   5789.665744      0.028934                    
P 19  13990.921459  -5504.620902  21730.563555   -507.653082                    
V 19  13317.941046  24614.239081  -1866.021709     -0.012061                    
P 20 -25797.590247  -1478.531117  -6623.087021    311.275292                    
V 20   7629.241299  -4645.432796 -29377.980966      0.037754                    
P 21   -151.114798  23211.317197  13261.308551   -437.585117                    
V 21  -9531.695534  13118.164087 -24740.786383     -0.036990                    
P 22  18332.723682  10797.395571  16234.638757    340.844521                    
V 22 -19975.813381   4075.755015  19954.062280      0.041119                    
P 23   5351.682249 -17065.962240 -19354.170252   -102.572466                    
V 23  15180.908462  20002.075838 -13772.325924     -0.024990                    
P 24 -14725.474929  21188.875109   5927.263253    -46.801334                    
V 24    499.562395  -8189.672471  30473.861539     -0.006111                    
P 25  -4302.499821  14879.944260 -21645.944591    -20.700931                    
V 25 -27213.932554   1262.251524   6466.114886     -0.035072                    
P 27  18546.855992   4780.199611  18436.377247     65.718294                    
V 27  11922.348710  20156.366654 -17099.711457      0.026813                    
P 28 -13425.075696 -12937.823656  19571.194658    433.693360                    
V 28  23440.957857   -631.445771  16096.149360      0.026118                    
P 29    844.244546  21756.156401 -15221.743875    604.947752                    
V 29 -11350.873639 -15741.830359 -23036.326522      0.022969                    
P 30  -3559.668786 -19082.879382  18092.084677    -70.240249                    
V 30  13156.144173 -18977.072883 -17471.367681      0.040203                    
P 31  12860.476515   7409.611306 -21891.545820    318.334641                    
V 31 -13418.476510  24658.462391    790.659451     -0.009734                    
P 32  24824.140182  -4755.941053  -7208.956622   -173.475042                    
V 32   9230.899308   3656.081171  29963.577156      0.095145                    
EOF
